{
  "type": "FeatureCollection",
  "features": [
    {
      "type": "Feature",
      "properties": {
        "name": "SG Highway Commercial Belt",
        "zone_name": "SG Highway Commercial Belt",
        "zone": "commercial",
        "zone_type": "commercial"
      },
      "geometry": {
        "type": "Polygon",
        "coordinates": [
          [
            [
              72.505,
              23.01
            ],
            [
              72.515,
              23.07
            ],
            [
              72.535,
              23.13
            ],
            [
              72.545,
              23.125
            ],
            [
              72.525,
              23.065
            ],
            [
              72.515,
              23.005
            ],
            [
              72.505,
              23.01
            ]
          ]
        ]
      }
    },
    {
      "type": "Feature",
      "properties": {
        "name": "Ashram Road Central Business District",
        "zone_name": "Ashram Road Central Business District",
        "zone": "commercial",
        "zone_type": "commercial"
      },
      "geometry": {
        "type": "Polygon",
        "coordinates": [
          [
            [
              72.565,
              23.015
            ],
            [
              72.57,
              23.055
            ],
            [
              72.578,
              23.052
            ],
            [
              72.573,
              23.012
            ],
            [
              72.565,
              23.015
            ]
          ]
        ]
      }
    },
    {
      "type": "Feature",
      "properties": {
        "name": "GIFT City International Financial Services Centre",
        "zone_name": "GIFT City International Financial Services Centre",
        "zone": "commercial",
        "zone_type": "commercial"
      },
      "geometry": {
        "type": "Polygon",
        "coordinates": [
          [
            [
              72.675,
              23.15
            ],
            [
              72.69,
              23.17
            ],
            [
              72.7,
              23.165
            ],
            [
              72.685,
              23.145
            ],
            [
              72.675,
              23.15
            ]
          ]
        ]
      }
    },
    {
      "type": "Feature",
      "properties": {
        "name": "Surat Ring Road Textile & Commercial Zone",
        "zone_name": "Surat Ring Road Textile & Commercial Zone",
        "zone": "commercial",
        "zone_type": "commercial"
      },
      "geometry": {
        "type": "Polygon",
        "coordinates": [
          [
            [
              72.825,
              21.18
            ],
            [
              72.865,
              21.215
            ],
            [
              72.875,
              21.205
            ],
            [
              72.835,
              21.17
            ],
            [
              72.825,
              21.18
            ]
          ]
        ]
      }
    },
    {
      "type": "Feature",
      "properties": {
        "name": "Alkapuri Commercial District (Vadodara)",
        "zone_name": "Alkapuri Commercial District (Vadodara)",
        "zone": "commercial",
        "zone_type": "commercial"
      },
      "geometry": {
        "type": "Polygon",
        "coordinates": [
          [
            [
              73.165,
              22.305
            ],
            [
              73.18,
              22.32
            ],
            [
              73.188,
              22.315
            ],
            [
              73.173,
              22.3
            ],
            [
              73.165,
              22.305
            ]
          ]
        ]
      }
    },
    {
      "type": "Feature",
      "properties": {
        "name": "Kalawad Road & 150ft Ring Commercial Hub (Rajkot)",
        "zone_name": "Kalawad Road & 150ft Ring Commercial Hub (Rajkot)",
        "zone": "commercial",
        "zone_type": "commercial"
      },
      "geometry": {
        "type": "Polygon",
        "coordinates": [
          [
            [
              70.75,
              22.275
            ],
            [
              70.785,
              22.305
            ],
            [
              70.795,
              22.298
            ],
            [
              70.76,
              22.268
            ],
            [
              70.75,
              22.275
            ]
          ]
        ]
      }
    },
    {
      "type": "Feature",
      "properties": {
        "name": "Sanand Industrial GIDC Auto Cluster",
        "zone_name": "Sanand Industrial GIDC Auto Cluster",
        "zone": "industrial",
        "zone_type": "industrial"
      },
      "geometry": {
        "type": "Polygon",
        "coordinates": [
          [
            [
              72.36,
              22.97
            ],
            [
              72.375,
              23.01
            ],
            [
              72.41,
              23.0
            ],
            [
              72.395,
              22.96
            ],
            [
              72.36,
              22.97
            ]
          ]
        ]
      }
    },
    {
      "type": "Feature",
      "properties": {
        "name": "Naroda & Vatva GIDC Manufacturing Cluster",
        "zone_name": "Naroda & Vatva GIDC Manufacturing Cluster",
        "zone": "industrial",
        "zone_type": "industrial"
      },
      "geometry": {
        "type": "Polygon",
        "coordinates": [
          [
            [
              72.645,
              22.97
            ],
            [
              72.665,
              23.07
            ],
            [
              72.69,
              23.06
            ],
            [
              72.67,
              22.96
            ],
            [
              72.645,
              22.97
            ]
          ]
        ]
      }
    },
    {
      "type": "Feature",
      "properties": {
        "name": "Makarpura GIDC Industrial Corridor (Vadodara)",
        "zone_name": "Makarpura GIDC Industrial Corridor (Vadodara)",
        "zone": "industrial",
        "zone_type": "industrial"
      },
      "geometry": {
        "type": "Polygon",
        "coordinates": [
          [
            [
              73.185,
              22.23
            ],
            [
              73.2,
              22.26
            ],
            [
              73.22,
              22.25
            ],
            [
              73.205,
              22.22
            ],
            [
              73.185,
              22.23
            ]
          ]
        ]
      }
    },
    {
      "type": "Feature",
      "properties": {
        "name": "Ankleshwar Chemical Industrial GIDC",
        "zone_name": "Ankleshwar Chemical Industrial GIDC",
        "zone": "industrial",
        "zone_type": "industrial"
      },
      "geometry": {
        "type": "Polygon",
        "coordinates": [
          [
            [
              72.99,
              21.61
            ],
            [
              73.01,
              21.65
            ],
            [
              73.04,
              21.64
            ],
            [
              73.02,
              21.6
            ],
            [
              72.99,
              21.61
            ]
          ]
        ]
      }
    },
    {
      "type": "Feature",
      "properties": {
        "name": "Dahej PCPIR Petrochemical & Port SEZ",
        "zone_name": "Dahej PCPIR Petrochemical & Port SEZ",
        "zone": "industrial",
        "zone_type": "industrial"
      },
      "geometry": {
        "type": "Polygon",
        "coordinates": [
          [
            [
              72.56,
              21.68
            ],
            [
              72.58,
              21.73
            ],
            [
              72.62,
              21.72
            ],
            [
              72.6,
              21.67
            ],
            [
              72.56,
              21.68
            ]
          ]
        ]
      }
    },
    {
      "type": "Feature",
      "properties": {
        "name": "Vapi Mega Industrial GIDC",
        "zone_name": "Vapi Mega Industrial GIDC",
        "zone": "industrial",
        "zone_type": "industrial"
      },
      "geometry": {
        "type": "Polygon",
        "coordinates": [
          [
            [
              72.89,
              20.35
            ],
            [
              72.915,
              20.39
            ],
            [
              72.94,
              20.38
            ],
            [
              72.915,
              20.34
            ],
            [
              72.89,
              20.35
            ]
          ]
        ]
      }
    },
    {
      "type": "Feature",
      "properties": {
        "name": "Metoda GIDC Auto & Engineering Estate (Rajkot)",
        "zone_name": "Metoda GIDC Auto & Engineering Estate (Rajkot)",
        "zone": "industrial",
        "zone_type": "industrial"
      },
      "geometry": {
        "type": "Polygon",
        "coordinates": [
          [
            [
              70.69,
              22.23
            ],
            [
              70.715,
              22.26
            ],
            [
              70.735,
              22.25
            ],
            [
              70.71,
              22.22
            ],
            [
              70.69,
              22.23
            ]
          ]
        ]
      }
    },
    {
      "type": "Feature",
      "properties": {
        "name": "Morbi Ceramic Industrial Cluster",
        "zone_name": "Morbi Ceramic Industrial Cluster",
        "zone": "industrial",
        "zone_type": "industrial"
      },
      "geometry": {
        "type": "Polygon",
        "coordinates": [
          [
            [
              70.81,
              22.79
            ],
            [
              70.835,
              22.845
            ],
            [
              70.88,
              22.835
            ],
            [
              70.855,
              22.78
            ],
            [
              70.81,
              22.79
            ]
          ]
        ]
      }
    },
    {
      "type": "Feature",
      "properties": {
        "name": "Mundra Port & Special Economic Zone",
        "zone_name": "Mundra Port & Special Economic Zone",
        "zone": "logistics",
        "zone_type": "logistics"
      },
      "geometry": {
        "type": "Polygon",
        "coordinates": [
          [
            [
              69.68,
              22.81
            ],
            [
              69.71,
              22.87
            ],
            [
              69.76,
              22.86
            ],
            [
              69.73,
              22.8
            ],
            [
              69.68,
              22.81
            ]
          ]
        ]
      }
    },
    {
      "type": "Feature",
      "properties": {
        "name": "Dholera Special Investment Region (SIR)",
        "zone_name": "Dholera Special Investment Region (SIR)",
        "zone": "industrial",
        "zone_type": "industrial"
      },
      "geometry": {
        "type": "Polygon",
        "coordinates": [
          [
            [
              72.16,
              22.21
            ],
            [
              72.2,
              22.28
            ],
            [
              72.26,
              22.26
            ],
            [
              72.22,
              22.19
            ],
            [
              72.16,
              22.21
            ]
          ]
        ]
      }
    },
    {
      "type": "Feature",
      "properties": {
        "name": "Halol Automobile GIDC Corridor",
        "zone_name": "Halol Automobile GIDC Corridor",
        "zone": "industrial",
        "zone_type": "industrial"
      },
      "geometry": {
        "type": "Polygon",
        "coordinates": [
          [
            [
              73.45,
              22.48
            ],
            [
              73.475,
              22.52
            ],
            [
              73.51,
              22.51
            ],
            [
              73.485,
              22.47
            ],
            [
              73.45,
              22.48
            ]
          ]
        ]
      }
    },
    {
      "type": "Feature",
      "properties": {
        "name": "Chitra GIDC Industrial Area (Bhavnagar)",
        "zone_name": "Chitra GIDC Industrial Area (Bhavnagar)",
        "zone": "industrial",
        "zone_type": "industrial"
      },
      "geometry": {
        "type": "Polygon",
        "coordinates": [
          [
            [
              72.09,
              21.73
            ],
            [
              72.11,
              21.76
            ],
            [
              72.13,
              21.75
            ],
            [
              72.11,
              21.72
            ],
            [
              72.09,
              21.73
            ]
          ]
        ]
      }
    },
    {
      "type": "Feature",
      "properties": {
        "name": "Sanand GIDC Automotive Cluster",
        "zone_name": "Sanand GIDC Automotive Cluster",
        "zone": "industrial",
        "zone_type": "industrial"
      },
      "geometry": {
        "type": "Polygon",
        "coordinates": [
          [
            [
              72.33,
              22.95
            ],
            [
              72.41,
              22.95
            ],
            [
              72.41,
              23.02
            ],
            [
              72.33,
              23.02
            ],
            [
              72.33,
              22.95
            ]
          ]
        ]
      }
    },
    {
      "type": "Feature",
      "properties": {
        "name": "Dahej PCPIR Heavy Chemical Zone",
        "zone_name": "Dahej PCPIR Heavy Chemical Zone",
        "zone": "industrial",
        "zone_type": "industrial"
      },
      "geometry": {
        "type": "Polygon",
        "coordinates": [
          [
            [
              72.51,
              21.66
            ],
            [
              72.62,
              21.66
            ],
            [
              72.62,
              21.75
            ],
            [
              72.51,
              21.75
            ],
            [
              72.51,
              21.66
            ]
          ]
        ]
      }
    },
    {
      "type": "Feature",
      "properties": {
        "name": "Ankleshwar Chemical Industrial Estate",
        "zone_name": "Ankleshwar Chemical Industrial Estate",
        "zone": "industrial",
        "zone_type": "industrial"
      },
      "geometry": {
        "type": "Polygon",
        "coordinates": [
          [
            [
              72.98,
              21.6
            ],
            [
              73.05,
              21.6
            ],
            [
              73.05,
              21.66
            ],
            [
              72.98,
              21.66
            ],
            [
              72.98,
              21.6
            ]
          ]
        ]
      }
    },
    {
      "type": "Feature",
      "properties": {
        "name": "Vapi Heavy Industrial Cluster",
        "zone_name": "Vapi Heavy Industrial Cluster",
        "zone": "industrial",
        "zone_type": "industrial"
      },
      "geometry": {
        "type": "Polygon",
        "coordinates": [
          [
            [
              72.88,
              20.34
            ],
            [
              72.95,
              20.34
            ],
            [
              72.95,
              20.4
            ],
            [
              72.88,
              20.4
            ],
            [
              72.88,
              20.34
            ]
          ]
        ]
      }
    },
    {
      "type": "Feature",
      "properties": {
        "name": "Hazira Heavy Engineering & LNG Complex",
        "zone_name": "Hazira Heavy Engineering & LNG Complex",
        "zone": "industrial",
        "zone_type": "industrial"
      },
      "geometry": {
        "type": "Polygon",
        "coordinates": [
          [
            [
              72.6,
              21.08
            ],
            [
              72.7,
              21.08
            ],
            [
              72.7,
              21.14
            ],
            [
              72.6,
              21.14
            ],
            [
              72.6,
              21.08
            ]
          ]
        ]
      }
    },
    {
      "type": "Feature",
      "properties": {
        "name": "Morbi Ceramic Hub Industrial Belt",
        "zone_name": "Morbi Ceramic Hub Industrial Belt",
        "zone": "industrial",
        "zone_type": "industrial"
      },
      "geometry": {
        "type": "Polygon",
        "coordinates": [
          [
            [
              70.78,
              22.78
            ],
            [
              70.92,
              22.78
            ],
            [
              70.92,
              22.88
            ],
            [
              70.78,
              22.88
            ],
            [
              70.78,
              22.78
            ]
          ]
        ]
      }
    },
    {
      "type": "Feature",
      "properties": {
        "name": "Halol Auto & Engineering GIDC",
        "zone_name": "Halol Auto & Engineering GIDC",
        "zone": "industrial",
        "zone_type": "industrial"
      },
      "geometry": {
        "type": "Polygon",
        "coordinates": [
          [
            [
              73.44,
              22.47
            ],
            [
              73.52,
              22.47
            ],
            [
              73.52,
              22.54
            ],
            [
              73.44,
              22.54
            ],
            [
              73.44,
              22.47
            ]
          ]
        ]
      }
    },
    {
      "type": "Feature",
      "properties": {
        "name": "Savli Biotech & Heavy Engineering Park",
        "zone_name": "Savli Biotech & Heavy Engineering Park",
        "zone": "industrial",
        "zone_type": "industrial"
      },
      "geometry": {
        "type": "Polygon",
        "coordinates": [
          [
            [
              73.2,
              22.52
            ],
            [
              73.3,
              22.52
            ],
            [
              73.3,
              22.6
            ],
            [
              73.2,
              22.6
            ],
            [
              73.2,
              22.52
            ]
          ]
        ]
      }
    },
    {
      "type": "Feature",
      "properties": {
        "name": "Changodar-Moraiya Industrial Logistics Hub",
        "zone_name": "Changodar-Moraiya Industrial Logistics Hub",
        "zone": "warehouse",
        "zone_type": "warehouse"
      },
      "geometry": {
        "type": "Polygon",
        "coordinates": [
          [
            [
              72.41,
              22.88
            ],
            [
              72.49,
              22.88
            ],
            [
              72.49,
              22.95
            ],
            [
              72.41,
              22.95
            ],
            [
              72.41,
              22.88
            ]
          ]
        ]
      }
    },
    {
      "type": "Feature",
      "properties": {
        "name": "Metoda-Lodhika Engineering GIDC (Rajkot)",
        "zone_name": "Metoda-Lodhika Engineering GIDC (Rajkot)",
        "zone": "industrial",
        "zone_type": "industrial"
      },
      "geometry": {
        "type": "Polygon",
        "coordinates": [
          [
            [
              70.68,
              22.21
            ],
            [
              70.76,
              22.21
            ],
            [
              70.76,
              22.28
            ],
            [
              70.68,
              22.28
            ],
            [
              70.68,
              22.21
            ]
          ]
        ]
      }
    },
    {
      "type": "Feature",
      "properties": {
        "name": "Alang Ship Recycling Yard Coastal Belt",
        "zone_name": "Alang Ship Recycling Yard Coastal Belt",
        "zone": "industrial",
        "zone_type": "industrial"
      },
      "geometry": {
        "type": "Polygon",
        "coordinates": [
          [
            [
              72.18,
              21.36
            ],
            [
              72.25,
              21.36
            ],
            [
              72.25,
              21.43
            ],
            [
              72.18,
              21.43
            ],
            [
              72.18,
              21.36
            ]
          ]
        ]
      }
    },
    {
      "type": "Feature",
      "properties": {
        "name": "Khavda Hybrid Renewable Mega Energy Park",
        "zone_name": "Khavda Hybrid Renewable Mega Energy Park",
        "zone": "wasteland",
        "zone_type": "wasteland"
      },
      "geometry": {
        "type": "Polygon",
        "coordinates": [
          [
            [
              69.6,
              23.75
            ],
            [
              70.1,
              23.75
            ],
            [
              70.1,
              24.15
            ],
            [
              69.6,
              24.15
            ],
            [
              69.6,
              23.75
            ]
          ]
        ]
      }
    },
    {
      "type": "Feature",
      "properties": {
        "name": "Charanka Ultra Mega Solar Park (Patan)",
        "zone_name": "Charanka Ultra Mega Solar Park (Patan)",
        "zone": "wasteland",
        "zone_type": "wasteland"
      },
      "geometry": {
        "type": "Polygon",
        "coordinates": [
          [
            [
              71.18,
              23.88
            ],
            [
              71.28,
              23.88
            ],
            [
              71.28,
              23.95
            ],
            [
              71.18,
              23.95
            ],
            [
              71.18,
              23.88
            ]
          ]
        ]
      }
    },
    {
      "type": "Feature",
      "properties": {
        "name": "Dholera Solar Park Belt",
        "zone_name": "Dholera Solar Park Belt",
        "zone": "wasteland",
        "zone_type": "wasteland"
      },
      "geometry": {
        "type": "Polygon",
        "coordinates": [
          [
            [
              72.15,
              22.18
            ],
            [
              72.28,
              22.18
            ],
            [
              72.28,
              22.3
            ],
            [
              72.15,
              22.3
            ],
            [
              72.15,
              22.18
            ]
          ]
        ]
      }
    },
    {
      "type": "Feature",
      "properties": {
        "name": "Jakhau Wind Corridor (Kutch Coast)",
        "zone_name": "Jakhau Wind Corridor (Kutch Coast)",
        "zone": "wasteland",
        "zone_type": "wasteland"
      },
      "geometry": {
        "type": "Polygon",
        "coordinates": [
          [
            [
              68.62,
              23.18
            ],
            [
              68.75,
              23.18
            ],
            [
              68.75,
              23.28
            ],
            [
              68.62,
              23.28
            ],
            [
              68.62,
              23.18
            ]
          ]
        ]
      }
    },
    {
      "type": "Feature",
      "properties": {
        "name": "Lamba Wind Energy Belt (Dwarka Coast)",
        "zone_name": "Lamba Wind Energy Belt (Dwarka Coast)",
        "zone": "barren",
        "zone_type": "barren"
      },
      "geometry": {
        "type": "Polygon",
        "coordinates": [
          [
            [
              69.35,
              21.9
            ],
            [
              69.5,
              21.9
            ],
            [
              69.5,
              22.02
            ],
            [
              69.35,
              22.02
            ],
            [
              69.35,
              21.9
            ]
          ]
        ]
      }
    },
    {
      "type": "Feature",
      "properties": {
        "name": "Raghanesda Solar Park (Banaskantha)",
        "zone_name": "Raghanesda Solar Park (Banaskantha)",
        "zone": "wasteland",
        "zone_type": "wasteland"
      },
      "geometry": {
        "type": "Polygon",
        "coordinates": [
          [
            [
              71.05,
              24.05
            ],
            [
              71.15,
              24.05
            ],
            [
              71.15,
              24.15
            ],
            [
              71.05,
              24.15
            ],
            [
              71.05,
              24.05
            ]
          ]
        ]
      }
    },
    {
      "type": "Feature",
      "properties": {
        "name": "Surat Ring Road & Textile Commercial District",
        "zone_name": "Surat Ring Road & Textile Commercial District",
        "zone": "commercial",
        "zone_type": "commercial"
      },
      "geometry": {
        "type": "Polygon",
        "coordinates": [
          [
            [
              72.8,
              21.15
            ],
            [
              72.88,
              21.15
            ],
            [
              72.88,
              21.22
            ],
            [
              72.8,
              21.22
            ],
            [
              72.8,
              21.15
            ]
          ]
        ]
      }
    },
    {
      "type": "Feature",
      "properties": {
        "name": "Vadodara Alkapuri CBD Corridor",
        "zone_name": "Vadodara Alkapuri CBD Corridor",
        "zone": "commercial",
        "zone_type": "commercial"
      },
      "geometry": {
        "type": "Polygon",
        "coordinates": [
          [
            [
              73.15,
              22.29
            ],
            [
              73.2,
              22.29
            ],
            [
              73.2,
              22.33
            ],
            [
              73.15,
              22.33
            ],
            [
              73.15,
              22.29
            ]
          ]
        ]
      }
    },
    {
      "type": "Feature",
      "properties": {
        "name": "Rajkot Yagnik Road Commercial Hub",
        "zone_name": "Rajkot Yagnik Road Commercial Hub",
        "zone": "commercial",
        "zone_type": "commercial"
      },
      "geometry": {
        "type": "Polygon",
        "coordinates": [
          [
            [
              70.78,
              22.28
            ],
            [
              70.83,
              22.28
            ],
            [
              70.83,
              22.32
            ],
            [
              70.78,
              22.32
            ],
            [
              70.78,
              22.28
            ]
          ]
        ]
      }
    },
    {
      "type": "Feature",
      "properties": {
        "name": "Bhavnagar Waghawadi Road Retail Belt",
        "zone_name": "Bhavnagar Waghawadi Road Retail Belt",
        "zone": "commercial",
        "zone_type": "commercial"
      },
      "geometry": {
        "type": "Polygon",
        "coordinates": [
          [
            [
              72.12,
              21.74
            ],
            [
              72.17,
              21.74
            ],
            [
              72.17,
              21.78
            ],
            [
              72.12,
              21.78
            ],
            [
              72.12,
              21.74
            ]
          ]
        ]
      }
    },
    {
      "type": "Feature",
      "properties": {
        "name": "Jamnagar Grain Market Commercial Center",
        "zone_name": "Jamnagar Grain Market Commercial Center",
        "zone": "commercial",
        "zone_type": "commercial"
      },
      "geometry": {
        "type": "Polygon",
        "coordinates": [
          [
            [
              70.04,
              22.45
            ],
            [
              70.08,
              22.45
            ],
            [
              70.08,
              22.49
            ],
            [
              70.04,
              22.49
            ],
            [
              70.04,
              22.45
            ]
          ]
        ]
      }
    },
    {
      "type": "Feature",
      "properties": {
        "name": "Gandhidham Commercial Port Hub",
        "zone_name": "Gandhidham Commercial Port Hub",
        "zone": "commercial",
        "zone_type": "commercial"
      },
      "geometry": {
        "type": "Polygon",
        "coordinates": [
          [
            [
              70.11,
              23.06
            ],
            [
              70.16,
              23.06
            ],
            [
              70.16,
              23.1
            ],
            [
              70.11,
              23.1
            ],
            [
              70.11,
              23.06
            ]
          ]
        ]
      }
    },
    {
      "type": "Feature",
      "properties": {
        "name": "Junagadh MG Road Commercial Center",
        "zone_name": "Junagadh MG Road Commercial Center",
        "zone": "commercial",
        "zone_type": "commercial"
      },
      "geometry": {
        "type": "Polygon",
        "coordinates": [
          [
            [
              70.44,
              21.5
            ],
            [
              70.48,
              21.5
            ],
            [
              70.48,
              21.54
            ],
            [
              70.44,
              21.54
            ],
            [
              70.44,
              21.5
            ]
          ]
        ]
      }
    }
  ]
}