{
  "type": "FeatureCollection",
  "features": [
    {
      "type": "Feature",
      "geometry": {
        "type": "Polygon",
        "coordinates": [
          [
            [
              68.1,
              23.75
            ],
            [
              68.8,
              24.5
            ],
            [
              70.5,
              24.7
            ],
            [
              71.8,
              24.5
            ],
            [
              72.5,
              24.4
            ],
            [
              73.5,
              24.2
            ],
            [
              74.3,
              23.0
            ],
            [
              74.5,
              22.0
            ],
            [
              73.8,
              21.1
            ],
            [
              73.3,
              20.3
            ],
            [
              72.85,
              20.1
            ],
            [
              72.6,
              20.9
            ],
            [
              72.1,
              21.6
            ],
            [
              71.0,
              20.7
            ],
            [
              69.2,
              22.2
            ],
            [
              68.95,
              22.5
            ],
            [
              70.1,
              22.9
            ],
            [
              68.5,
              23.5
            ],
            [
              68.1,
              23.75
            ]
          ]
        ]
      },
      "properties": {
        "name": "Gujarat",
        "state_code": "GJ",
        "area_sq_km": 196024,
        "capital": "Gandhinagar"
      }
    }
  ]
}