{
  "type": "FeatureCollection",
  "features": [
    {
      "type": "Feature",
      "properties": {
        "name": "NH-48 Golden Corridor (Delhi-Mumbai Express Highway)",
        "type": "national_highway",
        "hierarchy": "primary_arterial",
        "speed_limit_kmh": 100
      },
      "geometry": {
        "type": "LineString",
        "coordinates": [
          [
            72.95,
            24.35
          ],
          [
            72.85,
            23.85
          ],
          [
            72.63,
            23.21
          ],
          [
            72.57,
            23.02
          ],
          [
            72.75,
            22.75
          ],
          [
            72.95,
            22.55
          ],
          [
            73.18,
            22.3
          ],
          [
            73.0,
            21.65
          ],
          [
            72.83,
            21.17
          ],
          [
            72.92,
            20.85
          ],
          [
            72.93,
            20.6
          ],
          [
            72.91,
            20.37
          ]
        ]
      }
    },
    {
      "type": "Feature",
      "properties": {
        "name": "NH-27 East-West Freight Corridor (Porbandar - Rajkot - Ahmedabad - Shamlaji)",
        "type": "national_highway",
        "hierarchy": "primary_arterial",
        "speed_limit_kmh": 90
      },
      "geometry": {
        "type": "LineString",
        "coordinates": [
          [
            69.6,
            21.64
          ],
          [
            70.0,
            21.68
          ],
          [
            70.45,
            21.8
          ],
          [
            70.78,
            22.25
          ],
          [
            70.82,
            22.32
          ],
          [
            71.05,
            22.4
          ],
          [
            71.45,
            22.6
          ],
          [
            71.85,
            22.55
          ],
          [
            72.15,
            22.68
          ],
          [
            72.57,
            23.02
          ],
          [
            72.95,
            23.6
          ],
          [
            73.2,
            23.85
          ]
        ]
      }
    },
    {
      "type": "Feature",
      "properties": {
        "name": "NH-41 Kutch-Ports Strategic Expressway (Patan - Radhanpur - Samakhiali - Gandhidham - Mundra)",
        "type": "national_highway",
        "hierarchy": "freight_corridor",
        "speed_limit_kmh": 80
      },
      "geometry": {
        "type": "LineString",
        "coordinates": [
          [
            72.18,
            23.83
          ],
          [
            71.6,
            23.82
          ],
          [
            71.0,
            23.5
          ],
          [
            70.65,
            23.32
          ],
          [
            70.13,
            23.07
          ],
          [
            70.22,
            23.0
          ],
          [
            69.72,
            22.84
          ]
        ]
      }
    },
    {
      "type": "Feature",
      "properties": {
        "name": "NH-51 Saurashtra Coastal Highway (Dwarka - Porbandar - Somnath - Bhavnagar)",
        "type": "national_highway",
        "hierarchy": "coastal_corridor",
        "speed_limit_kmh": 80
      },
      "geometry": {
        "type": "LineString",
        "coordinates": [
          [
            68.96,
            22.24
          ],
          [
            69.6,
            21.64
          ],
          [
            70.36,
            20.9
          ],
          [
            70.9,
            20.75
          ],
          [
            71.4,
            20.8
          ],
          [
            71.91,
            20.9
          ],
          [
            72.15,
            21.76
          ]
        ]
      }
    },
    {
      "type": "Feature",
      "properties": {
        "name": "NH-151 / NH-8D Rajkot-Junagadh-Somnath Highway",
        "type": "national_highway",
        "hierarchy": "regional_arterial",
        "speed_limit_kmh": 80
      },
      "geometry": {
        "type": "LineString",
        "coordinates": [
          [
            70.8,
            22.3
          ],
          [
            70.65,
            21.85
          ],
          [
            70.45,
            21.52
          ],
          [
            70.4,
            21.15
          ],
          [
            70.36,
            20.9
          ]
        ]
      }
    },
    {
      "type": "Feature",
      "properties": {
        "name": "SH-25 Ahmedabad - Viramgam - Surendranagar - Morbi - Jamnagar Corridor",
        "type": "state_highway",
        "hierarchy": "industrial_arterial",
        "speed_limit_kmh": 80
      },
      "geometry": {
        "type": "LineString",
        "coordinates": [
          [
            72.57,
            23.02
          ],
          [
            72.05,
            23.12
          ],
          [
            71.65,
            22.75
          ],
          [
            71.15,
            22.8
          ],
          [
            70.83,
            22.82
          ],
          [
            70.07,
            22.47
          ]
        ]
      }
    },
    {
      "type": "Feature",
      "properties": {
        "name": "NH-56 Vadodara - Halol - Godhra - Dahod Industrial Corridor",
        "type": "national_highway",
        "hierarchy": "freight_arterial",
        "speed_limit_kmh": 80
      },
      "geometry": {
        "type": "LineString",
        "coordinates": [
          [
            73.18,
            22.3
          ],
          [
            73.47,
            22.5
          ],
          [
            73.62,
            22.77
          ],
          [
            74.25,
            22.83
          ]
        ]
      }
    },
    {
      "type": "Feature",
      "properties": {
        "name": "NH-53 Surat - Vyara - Songadh Commercial Freight Highway",
        "type": "national_highway",
        "hierarchy": "freight_arterial",
        "speed_limit_kmh": 80
      },
      "geometry": {
        "type": "LineString",
        "coordinates": [
          [
            72.83,
            21.17
          ],
          [
            73.1,
            21.1
          ],
          [
            73.4,
            21.12
          ],
          [
            73.65,
            21.17
          ]
        ]
      }
    },
    {
      "type": "Feature",
      "properties": {
        "name": "SH-41 Ahmedabad - Kalol - Mehsana - Palanpur North Axis",
        "type": "state_highway",
        "hierarchy": "primary_arterial",
        "speed_limit_kmh": 80
      },
      "geometry": {
        "type": "LineString",
        "coordinates": [
          [
            72.57,
            23.02
          ],
          [
            72.5,
            23.25
          ],
          [
            72.4,
            23.6
          ],
          [
            72.38,
            23.8
          ],
          [
            72.38,
            23.92
          ],
          [
            72.43,
            24.17
          ]
        ]
      }
    },
    {
      "type": "Feature",
      "properties": {
        "name": "NH-341 Kutch Bhuj - Nakhatrana - Lakhpat Border Corridor",
        "type": "national_highway",
        "hierarchy": "border_logistics",
        "speed_limit_kmh": 70
      },
      "geometry": {
        "type": "LineString",
        "coordinates": [
          [
            70.13,
            23.07
          ],
          [
            69.67,
            23.25
          ],
          [
            69.25,
            23.35
          ],
          [
            68.78,
            23.83
          ]
        ]
      }
    },
    {
      "type": "Feature",
      "properties": {
        "name": "NE-1 Ahmedabad - Vadodara Expressway",
        "type": "expressway",
        "hierarchy": "access_controlled",
        "speed_limit_kmh": 120
      },
      "geometry": {
        "type": "LineString",
        "coordinates": [
          [
            72.63,
            22.98
          ],
          [
            72.86,
            22.7
          ],
          [
            72.96,
            22.56
          ],
          [
            73.18,
            22.32
          ]
        ]
      }
    },
    {
      "type": "Feature",
      "properties": {
        "name": "SP Ring Road (Ahmedabad 76km Orbital Freeway)",
        "type": "ring_road",
        "hierarchy": "metro_orbital",
        "speed_limit_kmh": 80
      },
      "geometry": {
        "type": "LineString",
        "coordinates": [
          [
            72.46,
            23.03
          ],
          [
            72.48,
            23.12
          ],
          [
            72.6,
            23.13
          ],
          [
            72.67,
            23.06
          ],
          [
            72.66,
            22.94
          ],
          [
            72.55,
            22.92
          ],
          [
            72.46,
            23.03
          ]
        ]
      }
    },
    {
      "type": "Feature",
      "properties": {
        "name": "SG Highway (Ahmedabad - Gandhinagar Tech Spine)",
        "type": "arterial",
        "hierarchy": "commercial_spine",
        "speed_limit_kmh": 70
      },
      "geometry": {
        "type": "LineString",
        "coordinates": [
          [
            72.51,
            23.01
          ],
          [
            72.52,
            23.06
          ],
          [
            72.54,
            23.12
          ],
          [
            72.58,
            23.18
          ],
          [
            72.63,
            23.21
          ]
        ]
      }
    },
    {
      "type": "Feature",
      "properties": {
        "name": "Kalawad Road & 150ft Ring Road (Rajkot Primary Commercial Spine)",
        "type": "arterial",
        "hierarchy": "city_arterial",
        "speed_limit_kmh": 60
      },
      "geometry": {
        "type": "LineString",
        "coordinates": [
          [
            70.73,
            22.28
          ],
          [
            70.76,
            22.29
          ],
          [
            70.79,
            22.3
          ],
          [
            70.82,
            22.28
          ]
        ]
      }
    },
    {
      "type": "Feature",
      "properties": {
        "name": "Surat Dumas Road (Surat Airport Commercial Corridor)",
        "type": "arterial",
        "hierarchy": "airport_arterial",
        "speed_limit_kmh": 70
      },
      "geometry": {
        "type": "LineString",
        "coordinates": [
          [
            72.82,
            21.18
          ],
          [
            72.78,
            21.15
          ],
          [
            72.74,
            21.12
          ],
          [
            72.7,
            21.08
          ]
        ]
      }
    },
    {
      "type": "Feature",
      "properties": {
        "name": "Bhavnagar - Rajkot Highway (SH-23)",
        "type": "state_highway",
        "hierarchy": "inter_district",
        "speed_limit_kmh": 80
      },
      "geometry": {
        "type": "LineString",
        "coordinates": [
          [
            72.15,
            21.76
          ],
          [
            71.95,
            21.78
          ],
          [
            71.65,
            21.85
          ],
          [
            71.2,
            22.05
          ],
          [
            70.8,
            22.3
          ]
        ]
      }
    },
    {
      "type": "Feature",
      "properties": {
        "name": "Jamnagar - Rajkot Highway (SH-24)",
        "type": "state_highway",
        "hierarchy": "inter_district",
        "speed_limit_kmh": 80
      },
      "geometry": {
        "type": "LineString",
        "coordinates": [
          [
            70.07,
            22.47
          ],
          [
            70.3,
            22.45
          ],
          [
            70.55,
            22.4
          ],
          [
            70.8,
            22.3
          ]
        ]
      }
    }
  ]
}