{
  "type": "FeatureCollection",
  "features": [
    {
      "type": "Feature",
      "properties": {
        "name": "Kankaria Lake",
        "type": "lake",
        "is_exclusion": true,
        "hazard": "Protected Water Body: Kankaria Lake",
        "disqualification_reason": "Candidate site is inside Kankaria Lake. Ground construction is prohibited."
      },
      "geometry": {
        "type": "Polygon",
        "coordinates": [
          [
            [
              72.597,
              23.003
            ],
            [
              72.602,
              23.008
            ],
            [
              72.607,
              23.008
            ],
            [
              72.61,
              23.004
            ],
            [
              72.608,
              22.999
            ],
            [
              72.601,
              22.998
            ],
            [
              72.597,
              23.003
            ]
          ]
        ]
      }
    },
    {
      "type": "Feature",
      "properties": {
        "name": "Vastrapur Lake",
        "type": "lake",
        "is_exclusion": true,
        "hazard": "Protected Water Body: Vastrapur Lake",
        "disqualification_reason": "Candidate site is inside Vastrapur Lake. Ground construction is prohibited."
      },
      "geometry": {
        "type": "Polygon",
        "coordinates": [
          [
            [
              72.525,
              23.033
            ],
            [
              72.532,
              23.038
            ],
            [
              72.535,
              23.035
            ],
            [
              72.529,
              23.031
            ],
            [
              72.525,
              23.033
            ]
          ]
        ]
      }
    },
    {
      "type": "Feature",
      "properties": {
        "name": "Chandola Lake",
        "type": "lake",
        "is_exclusion": true,
        "hazard": "Protected Water Body: Chandola Lake",
        "disqualification_reason": "Candidate site is inside Chandola Lake water basin."
      },
      "geometry": {
        "type": "Polygon",
        "coordinates": [
          [
            [
              72.578,
              22.986
            ],
            [
              72.589,
              22.993
            ],
            [
              72.594,
              22.988
            ],
            [
              72.582,
              22.98
            ],
            [
              72.578,
              22.986
            ]
          ]
        ]
      }
    },
    {
      "type": "Feature",
      "properties": {
        "name": "Sabarmati River Active Channel",
        "type": "riverbed",
        "is_exclusion": true,
        "hazard": "Protected Water Body: Sabarmati River Active Channel",
        "disqualification_reason": "Location falls inside Sabarmati River floodway. Construction prohibited."
      },
      "geometry": {
        "type": "Polygon",
        "coordinates": [
          [
            [
              72.58,
              23.15
            ],
            [
              72.575,
              23.08
            ],
            [
              72.568,
              23.03
            ],
            [
              72.578,
              22.98
            ],
            [
              72.585,
              22.98
            ],
            [
              72.576,
              23.03
            ],
            [
              72.583,
              23.08
            ],
            [
              72.587,
              23.15
            ],
            [
              72.58,
              23.15
            ]
          ]
        ]
      }
    },
    {
      "type": "Feature",
      "properties": {
        "name": "Thol Bird Sanctuary & Lake",
        "type": "wetland",
        "is_exclusion": true,
        "hazard": "Protected Water Body: Thol Bird Sanctuary & Lake",
        "disqualification_reason": "Candidate site falls inside protected Thol Lake Ramsar Wetland."
      },
      "geometry": {
        "type": "Polygon",
        "coordinates": [
          [
            [
              72.39,
              23.135
            ],
            [
              72.41,
              23.155
            ],
            [
              72.43,
              23.15
            ],
            [
              72.425,
              23.13
            ],
            [
              72.4,
              23.125
            ],
            [
              72.39,
              23.135
            ]
          ]
        ]
      }
    },
    {
      "type": "Feature",
      "properties": {
        "name": "Nalsarovar Ramsar Wetland",
        "type": "wetland",
        "is_exclusion": true,
        "hazard": "Protected Water Body: Nalsarovar Ramsar Wetland",
        "disqualification_reason": "Candidate site falls inside protected Nalsarovar Bird Sanctuary wetland."
      },
      "geometry": {
        "type": "Polygon",
        "coordinates": [
          [
            [
              71.95,
              22.75
            ],
            [
              72.08,
              22.85
            ],
            [
              72.12,
              22.8
            ],
            [
              72.02,
              22.7
            ],
            [
              71.95,
              22.75
            ]
          ]
        ]
      }
    },
    {
      "type": "Feature",
      "properties": {
        "name": "Aji Dam Reservoir",
        "type": "reservoir",
        "is_exclusion": true,
        "hazard": "Protected Water Body: Aji Dam Reservoir",
        "disqualification_reason": "Candidate location falls within Aji Dam Reservoir, Rajkot. Construction prohibited."
      },
      "geometry": {
        "type": "Polygon",
        "coordinates": [
          [
            [
              70.82,
              22.23
            ],
            [
              70.82,
              22.255
            ],
            [
              70.84,
              22.265
            ],
            [
              70.86,
              22.255
            ],
            [
              70.855,
              22.235
            ],
            [
              70.835,
              22.23
            ],
            [
              70.82,
              22.23
            ]
          ]
        ]
      }
    },
    {
      "type": "Feature",
      "properties": {
        "name": "Nyari Dam Reservoir",
        "type": "reservoir",
        "is_exclusion": true,
        "hazard": "Protected Water Body: Nyari Dam Reservoir",
        "disqualification_reason": "Candidate site falls within Nyari Dam catchment reservoir, Rajkot."
      },
      "geometry": {
        "type": "Polygon",
        "coordinates": [
          [
            [
              70.68,
              22.285
            ],
            [
              70.68,
              22.315
            ],
            [
              70.72,
              22.325
            ],
            [
              70.735,
              22.295
            ],
            [
              70.68,
              22.285
            ]
          ]
        ]
      }
    },
    {
      "type": "Feature",
      "properties": {
        "name": "Bhadar Dam Reservoir",
        "type": "reservoir",
        "is_exclusion": true,
        "hazard": "Protected Water Body: Bhadar Dam Reservoir",
        "disqualification_reason": "Location falls inside Bhadar River Dam reservoir."
      },
      "geometry": {
        "type": "Polygon",
        "coordinates": [
          [
            [
              70.42,
              21.78
            ],
            [
              70.44,
              21.84
            ],
            [
              70.49,
              21.82
            ],
            [
              70.47,
              21.77
            ],
            [
              70.42,
              21.78
            ]
          ]
        ]
      }
    },
    {
      "type": "Feature",
      "properties": {
        "name": "Sursagar Lake",
        "type": "lake",
        "is_exclusion": true,
        "hazard": "Protected Water Body: Sursagar Lake",
        "disqualification_reason": "Location inside Sursagar Lake, Vadodara. Ground construction is prohibited."
      },
      "geometry": {
        "type": "Polygon",
        "coordinates": [
          [
            [
              73.2,
              22.298
            ],
            [
              73.205,
              22.302
            ],
            [
              73.208,
              22.3
            ],
            [
              73.203,
              22.296
            ],
            [
              73.2,
              22.298
            ]
          ]
        ]
      }
    },
    {
      "type": "Feature",
      "properties": {
        "name": "Ajwa Water Reservoir",
        "type": "reservoir",
        "is_exclusion": true,
        "hazard": "Protected Water Body: Ajwa Water Reservoir",
        "disqualification_reason": "Site is inside Ajwa Water Reservoir, Vadodara potable water source."
      },
      "geometry": {
        "type": "Polygon",
        "coordinates": [
          [
            [
              73.38,
              22.34
            ],
            [
              73.4,
              22.38
            ],
            [
              73.43,
              22.37
            ],
            [
              73.41,
              22.33
            ],
            [
              73.38,
              22.34
            ]
          ]
        ]
      }
    },
    {
      "type": "Feature",
      "properties": {
        "name": "Vishwamitri River Corridor",
        "type": "riverbed",
        "is_exclusion": true,
        "hazard": "Protected Water Body: Vishwamitri River Corridor",
        "disqualification_reason": "Location falls inside Vishwamitri River floodway buffer."
      },
      "geometry": {
        "type": "Polygon",
        "coordinates": [
          [
            [
              73.17,
              22.35
            ],
            [
              73.185,
              22.31
            ],
            [
              73.2,
              22.26
            ],
            [
              73.21,
              22.26
            ],
            [
              73.195,
              22.31
            ],
            [
              73.18,
              22.35
            ],
            [
              73.17,
              22.35
            ]
          ]
        ]
      }
    },
    {
      "type": "Feature",
      "properties": {
        "name": "Sardar Sarovar Narmada Reservoir",
        "type": "reservoir",
        "is_exclusion": true,
        "hazard": "Protected Water Body: Sardar Sarovar Narmada Reservoir",
        "disqualification_reason": "Site is inside Sardar Sarovar Dam reservoir. Ground construction prohibited."
      },
      "geometry": {
        "type": "Polygon",
        "coordinates": [
          [
            [
              73.74,
              21.82
            ],
            [
              73.76,
              21.86
            ],
            [
              73.85,
              21.88
            ],
            [
              73.88,
              21.84
            ],
            [
              73.8,
              21.81
            ],
            [
              73.74,
              21.82
            ]
          ]
        ]
      }
    },
    {
      "type": "Feature",
      "properties": {
        "name": "Tapi River Active Channel",
        "type": "riverbed",
        "is_exclusion": true,
        "hazard": "Protected Water Body: Tapi River Active Channel",
        "disqualification_reason": "Site falls inside Tapi River active floodway. Construction prohibited."
      },
      "geometry": {
        "type": "Polygon",
        "coordinates": [
          [
            [
              72.75,
              21.14
            ],
            [
              72.82,
              21.18
            ],
            [
              72.86,
              21.22
            ],
            [
              72.87,
              21.215
            ],
            [
              72.825,
              21.175
            ],
            [
              72.76,
              21.135
            ],
            [
              72.75,
              21.14
            ]
          ]
        ]
      }
    },
    {
      "type": "Feature",
      "properties": {
        "name": "Ukai Dam Mega Reservoir",
        "type": "reservoir",
        "is_exclusion": true,
        "hazard": "Protected Water Body: Ukai Dam Mega Reservoir",
        "disqualification_reason": "Site falls inside Ukai Dam reservoir on Tapi River."
      },
      "geometry": {
        "type": "Polygon",
        "coordinates": [
          [
            [
              73.55,
              21.2
            ],
            [
              73.58,
              21.28
            ],
            [
              73.68,
              21.32
            ],
            [
              73.72,
              21.25
            ],
            [
              73.62,
              21.18
            ],
            [
              73.55,
              21.2
            ]
          ]
        ]
      }
    },
    {
      "type": "Feature",
      "properties": {
        "name": "Gopi Talav Lake",
        "type": "lake",
        "is_exclusion": true,
        "hazard": "Protected Water Body: Gopi Talav Lake",
        "disqualification_reason": "Location inside Gopi Talav, Surat. Ground construction prohibited."
      },
      "geometry": {
        "type": "Polygon",
        "coordinates": [
          [
            [
              72.825,
              21.19
            ],
            [
              72.828,
              21.193
            ],
            [
              72.831,
              21.191
            ],
            [
              72.828,
              21.188
            ],
            [
              72.825,
              21.19
            ]
          ]
        ]
      }
    },
    {
      "type": "Feature",
      "properties": {
        "name": "Dharoi Dam Reservoir",
        "type": "reservoir",
        "is_exclusion": true,
        "hazard": "Protected Water Body: Dharoi Dam Reservoir",
        "disqualification_reason": "Site inside Dharoi Dam reservoir on Sabarmati River."
      },
      "geometry": {
        "type": "Polygon",
        "coordinates": [
          [
            [
              72.83,
              23.98
            ],
            [
              72.85,
              24.03
            ],
            [
              72.9,
              24.02
            ],
            [
              72.88,
              23.97
            ],
            [
              72.83,
              23.98
            ]
          ]
        ]
      }
    },
    {
      "type": "Feature",
      "properties": {
        "name": "Hamirsar Lake",
        "type": "lake",
        "is_exclusion": true,
        "hazard": "Protected Water Body: Hamirsar Lake",
        "disqualification_reason": "Location inside Hamirsar Lake, Bhuj. Construction prohibited."
      },
      "geometry": {
        "type": "Polygon",
        "coordinates": [
          [
            [
              69.66,
              23.245
            ],
            [
              69.667,
              23.251
            ],
            [
              69.672,
              23.248
            ],
            [
              69.665,
              23.242
            ],
            [
              69.66,
              23.245
            ]
          ]
        ]
      }
    },
    {
      "type": "Feature",
      "properties": {
        "name": "Lakhota Lake (Ranmal Talav)",
        "type": "lake",
        "is_exclusion": true,
        "hazard": "Protected Water Body: Lakhota Lake (Ranmal Talav)",
        "disqualification_reason": "Location inside Lakhota Lake, Jamnagar. Construction prohibited."
      },
      "geometry": {
        "type": "Polygon",
        "coordinates": [
          [
            [
              70.06,
              22.465
            ],
            [
              70.066,
              22.47
            ],
            [
              70.07,
              22.467
            ],
            [
              70.064,
              22.462
            ],
            [
              70.06,
              22.465
            ]
          ]
        ]
      }
    },
    {
      "type": "Feature",
      "properties": {
        "name": "Gulf of Khambhat Marine Waters",
        "type": "ocean",
        "is_exclusion": true,
        "hazard": "Protected Water Body: Gulf of Khambhat Marine Waters",
        "disqualification_reason": "Location falls in Gulf of Khambhat marine waters. Physical construction prohibited."
      },
      "geometry": {
        "type": "Polygon",
        "coordinates": [
          [
            [
              72.1,
              21.2
            ],
            [
              72.3,
              22.1
            ],
            [
              72.6,
              22.15
            ],
            [
              72.75,
              21.5
            ],
            [
              72.65,
              20.9
            ],
            [
              72.2,
              20.95
            ],
            [
              72.1,
              21.2
            ]
          ]
        ]
      }
    },
    {
      "type": "Feature",
      "properties": {
        "name": "Gulf of Kutch Marine Waters",
        "type": "ocean",
        "is_exclusion": true,
        "hazard": "Protected Water Body: Gulf of Kutch Marine Waters",
        "disqualification_reason": "Location falls in Gulf of Kutch marine waters. Physical construction prohibited."
      },
      "geometry": {
        "type": "Polygon",
        "coordinates": [
          [
            [
              69.1,
              22.5
            ],
            [
              69.8,
              22.75
            ],
            [
              70.3,
              22.9
            ],
            [
              70.5,
              22.85
            ],
            [
              70.2,
              22.6
            ],
            [
              69.5,
              22.35
            ],
            [
              69.1,
              22.5
            ]
          ]
        ]
      }
    },
    {
      "type": "Feature",
      "properties": {
        "name": "Arabian Sea Coastal Waters (Saurashtra Coast)",
        "type": "ocean",
        "is_exclusion": true,
        "hazard": "Protected Water Body: Arabian Sea Coastal Waters (Saurashtra Coast)",
        "disqualification_reason": "Site is situated inside open Arabian Sea coastal waters."
      },
      "geometry": {
        "type": "Polygon",
        "coordinates": [
          [
            [
              68.8,
              22.2
            ],
            [
              69.3,
              21.6
            ],
            [
              70.0,
              20.8
            ],
            [
              70.8,
              20.6
            ],
            [
              70.6,
              20.4
            ],
            [
              69.8,
              20.5
            ],
            [
              69.0,
              21.2
            ],
            [
              68.5,
              22.0
            ],
            [
              68.8,
              22.2
            ]
          ]
        ]
      }
    },
    {
      "type": "Feature",
      "properties": {
        "name": "Little Rann of Kutch Salt Marsh",
        "type": "wetland",
        "is_exclusion": true,
        "hazard": "Protected Water Body: Little Rann of Kutch Salt Marsh",
        "disqualification_reason": "Location falls in Little Rann of Kutch seasonal salt marsh & wild ass sanctuary."
      },
      "geometry": {
        "type": "Polygon",
        "coordinates": [
          [
            [
              71.1,
              23.1
            ],
            [
              71.3,
              23.6
            ],
            [
              71.7,
              23.5
            ],
            [
              71.8,
              23.15
            ],
            [
              71.5,
              22.95
            ],
            [
              71.1,
              23.1
            ]
          ]
        ]
      }
    }
  ]
}