{
  "type": "FeatureCollection",
  "features": [
    {
      "type": "Feature",
      "properties": {
        "name": "Sabarmati River Active Spillover Plains",
        "hazard": "Sabarmati River Active Spillover Plains",
        "risk_level": "high"
      },
      "geometry": {
        "type": "Polygon",
        "coordinates": [
          [
            [
              72.565,
              23.0
            ],
            [
              72.57,
              23.05
            ],
            [
              72.58,
              23.05
            ],
            [
              72.575,
              23.0
            ],
            [
              72.565,
              23.0
            ]
          ]
        ]
      }
    },
    {
      "type": "Feature",
      "properties": {
        "name": "Tapi River Delta Inundation Zone",
        "hazard": "Tapi River Delta Inundation Zone",
        "risk_level": "high"
      },
      "geometry": {
        "type": "Polygon",
        "coordinates": [
          [
            [
              72.76,
              21.13
            ],
            [
              72.81,
              21.17
            ],
            [
              72.83,
              21.16
            ],
            [
              72.78,
              21.12
            ],
            [
              72.76,
              21.13
            ]
          ]
        ]
      }
    },
    {
      "type": "Feature",
      "properties": {
        "name": "Vishwamitri River Seasonal Flood Basin",
        "hazard": "Vishwamitri River Seasonal Flood Basin",
        "risk_level": "medium"
      },
      "geometry": {
        "type": "Polygon",
        "coordinates": [
          [
            [
              73.18,
              22.28
            ],
            [
              73.19,
              22.33
            ],
            [
              73.205,
              22.325
            ],
            [
              73.195,
              22.275
            ],
            [
              73.18,
              22.28
            ]
          ]
        ]
      }
    },
    {
      "type": "Feature",
      "properties": {
        "name": "Gulf of Khambhat Tidal Inundation Buffer",
        "hazard": "Gulf of Khambhat Tidal Inundation Buffer",
        "risk_level": "high"
      },
      "geometry": {
        "type": "Polygon",
        "coordinates": [
          [
            [
              72.15,
              21.4
            ],
            [
              72.25,
              21.75
            ],
            [
              72.35,
              21.7
            ],
            [
              72.25,
              21.35
            ],
            [
              72.15,
              21.4
            ]
          ]
        ]
      }
    },
    {
      "type": "Feature",
      "properties": {
        "name": "Bhadar River Monsoonal Spillover Zone",
        "hazard": "Bhadar River Monsoonal Spillover Zone",
        "risk_level": "medium"
      },
      "geometry": {
        "type": "Polygon",
        "coordinates": [
          [
            [
              70.43,
              21.79
            ],
            [
              70.45,
              21.83
            ],
            [
              70.48,
              21.82
            ],
            [
              70.46,
              21.78
            ],
            [
              70.43,
              21.79
            ]
          ]
        ]
      }
    },
    {
      "type": "Feature",
      "properties": {
        "name": "Aji River Drainage Inundation Buffer",
        "hazard": "Aji River Drainage Inundation Buffer",
        "risk_level": "medium"
      },
      "geometry": {
        "type": "Polygon",
        "coordinates": [
          [
            [
              70.81,
              22.24
            ],
            [
              70.825,
              22.27
            ],
            [
              70.84,
              22.26
            ],
            [
              70.825,
              22.235
            ],
            [
              70.81,
              22.24
            ]
          ]
        ]
      }
    },
    {
      "type": "Feature",
      "properties": {
        "name": "Tapi River Flood Plain (Surat City)",
        "river": "Tapi",
        "risk_level": "high"
      },
      "geometry": {
        "type": "Polygon",
        "coordinates": [
          [
            [
              72.78,
              21.16
            ],
            [
              72.86,
              21.16
            ],
            [
              72.86,
              21.21
            ],
            [
              72.78,
              21.21
            ],
            [
              72.78,
              21.16
            ]
          ]
        ]
      }
    },
    {
      "type": "Feature",
      "properties": {
        "name": "Narmada Estuary Inundation Plain (Bharuch)",
        "river": "Narmada",
        "risk_level": "medium"
      },
      "geometry": {
        "type": "Polygon",
        "coordinates": [
          [
            [
              72.88,
              21.65
            ],
            [
              73.05,
              21.65
            ],
            [
              73.05,
              21.72
            ],
            [
              72.88,
              21.72
            ],
            [
              72.88,
              21.65
            ]
          ]
        ]
      }
    },
    {
      "type": "Feature",
      "properties": {
        "name": "Mahi River Basin Lowlands (Vadodara/Anand)",
        "river": "Mahi",
        "risk_level": "low"
      },
      "geometry": {
        "type": "Polygon",
        "coordinates": [
          [
            [
              72.95,
              22.25
            ],
            [
              73.1,
              22.25
            ],
            [
              73.1,
              22.35
            ],
            [
              72.95,
              22.35
            ],
            [
              72.95,
              22.25
            ]
          ]
        ]
      }
    },
    {
      "type": "Feature",
      "properties": {
        "name": "Vishwamitri Urban Flood Basin (Vadodara)",
        "river": "Vishwamitri",
        "risk_level": "high"
      },
      "geometry": {
        "type": "Polygon",
        "coordinates": [
          [
            [
              73.16,
              22.27
            ],
            [
              73.22,
              22.27
            ],
            [
              73.22,
              22.34
            ],
            [
              73.16,
              22.34
            ],
            [
              73.16,
              22.27
            ]
          ]
        ]
      }
    },
    {
      "type": "Feature",
      "properties": {
        "name": "Banas River Monsoon Flood Buffer (Banaskantha)",
        "river": "Banas",
        "risk_level": "medium"
      },
      "geometry": {
        "type": "Polygon",
        "coordinates": [
          [
            [
              71.55,
              23.9
            ],
            [
              71.75,
              23.9
            ],
            [
              71.75,
              24.05
            ],
            [
              71.55,
              24.05
            ],
            [
              71.55,
              23.9
            ]
          ]
        ]
      }
    },
    {
      "type": "Feature",
      "properties": {
        "name": "Damanganga River Basin Hazard Buffer (Vapi)",
        "river": "Damanganga",
        "risk_level": "medium"
      },
      "geometry": {
        "type": "Polygon",
        "coordinates": [
          [
            [
              72.86,
              20.36
            ],
            [
              72.96,
              20.36
            ],
            [
              72.96,
              20.42
            ],
            [
              72.86,
              20.42
            ],
            [
              72.86,
              20.36
            ]
          ]
        ]
      }
    },
    {
      "type": "Feature",
      "properties": {
        "name": "Machchhu River Basin Hazard Zone (Morbi)",
        "river": "Machchhu",
        "risk_level": "medium"
      },
      "geometry": {
        "type": "Polygon",
        "coordinates": [
          [
            [
              70.8,
              22.79
            ],
            [
              70.88,
              22.79
            ],
            [
              70.88,
              22.85
            ],
            [
              70.8,
              22.85
            ],
            [
              70.8,
              22.79
            ]
          ]
        ]
      }
    },
    {
      "type": "Feature",
      "properties": {
        "name": "Gulf of Khambhat Coastal Surge Buffer",
        "river": "Gulf of Khambhat",
        "risk_level": "medium"
      },
      "geometry": {
        "type": "Polygon",
        "coordinates": [
          [
            [
              72.45,
              21.45
            ],
            [
              72.7,
              21.45
            ],
            [
              72.7,
              21.65
            ],
            [
              72.45,
              21.65
            ],
            [
              72.45,
              21.45
            ]
          ]
        ]
      }
    }
  ]
}